GLOBALSTAR M024 [-]     
1 25883U 99043A   23293.61181200  .00000013  00000+0  27642-2 0  9995
2 25883  52.0023 306.9939 0001281 175.2969 348.1032 11.10155135 47601
GLOBALSTAR M027 [-]     
1 25884U 99043B   23293.51387446 -.00000100  00000+0 -13634-2 0  9990
2 25884  52.0253   8.0412 0021694  93.9330 266.3944 11.04365146 74321
GLOBALSTAR M054 [-]     
1 25885U 99043C   23293.86867959 -.00000099  00000+0 -71221-3 0  9995
2 25885  52.0128 236.1262 0003980 203.3131 193.0791 11.39204196 50060
GLOBALSTAR M053 [-]     
1 25886U 99043D   23293.92184512 -.00000069  00000+0 -47809-5 0  9994
2 25886  51.9951 149.5195 0004041 121.9626 339.2398 11.27651754 51160
GLOBALSTAR M058 [-]     
1 25907U 99049A   23293.97583829 -.00000057  00000+0  37195-3 0  9994
2 25907  51.9936 285.2033 0002158 174.0141 186.0719 11.93167479 80508
GLOBALSTAR M050 [-]     
1 25908U 99049B   23293.42610111 -.00000143  00000+0 -62366-3 0  9995
2 25908  52.0013 339.6018 0008709 263.7199 201.8923 12.07422159 75019
GLOBALSTAR M033 [-]     
1 25909U 99049C   23293.29497561 -.00000159  00000+0 -64778-3 0  9999
2 25909  51.9903 253.6421 0011786 107.5066 252.7070 12.20261533461778
GLOBALSTAR M055 [-]     
1 25910U 99049D   23293.39593070 -.00000048  00000+0  39605-3 0  9991
2 25910  52.0016 293.5860 0006915 316.4183  43.6121 12.29389330 93776
